{
  "type": "FeatureCollection",
  "generator": "overpass-ide",
  "copyright": "The data included in this document is from www.openstreetmap.org. The data is made available under ODbL.",
  "timestamp": "2019-11-16T13:18:02Z",
  "features": [
    {
      "type": "Feature",
      "properties": {
        "@id": "node/1102990219",
        "amenity": "cafe",
        "name": "Nerija"
      },
      "geometry": {
        "type": "Point",
        "coordinates": [
          21.1139758,
          55.7041649
        ]
      },
      "id": "node/1102990219"
    },
    {
      "type": "Feature",
      "properties": {
        "@id": "node/1118419604",
        "amenity": "cafe"
      },
      "geometry": {
        "type": "Point",
        "coordinates": [
          21.1031791,
          55.6990437
        ]
      },
      "id": "node/1118419604"
    },
    {
      "type": "Feature",
      "properties": {
        "@id": "node/1788942696",
        "addr:city": "Klaipėda",
        "addr:contact": "yes",
        "addr:housenumber": "6",
        "addr:street": "M. Mažvydo al.",
        "amenity": "cafe",
        "name": "Pas Betą"
      },
      "geometry": {
        "type": "Point",
        "coordinates": [
          21.1324611,
          55.7142295
        ]
      },
      "id": "node/1788942696"
    },
    {
      "type": "Feature",
      "properties": {
        "@id": "node/2517847137",
        "addr:city": "Klaipėda",
        "addr:housenumber": "1",
        "addr:street": "Danės g.",
        "amenity": "cafe",
        "cuisine": "burger;regional;drinks",
        "internet_access": "yes",
        "name": "Meat Lovers Pub",
        "opening_hours": "Mo-Fr 9:00-22:00; Sa-Su 10:00-22:00",
        "outdoor_seating": "yes",
        "phone": "+370 652 21 998",
        "website": "https://www.facebook.com/meatloversklaipeda/"
      },
      "geometry": {
        "type": "Point",
        "coordinates": [
          21.1229963,
          55.7066004
        ]
      },
      "id": "node/2517847137"
    },
    {
      "type": "Feature",
      "properties": {
        "@id": "node/3585291036",
        "amenity": "cafe",
        "name": "Kavinė"
      },
      "geometry": {
        "type": "Point",
        "coordinates": [
          21.1391806,
          55.6889119
        ]
      },
      "id": "node/3585291036"
    },
    {
      "type": "Feature",
      "properties": {
        "@id": "node/4161124807",
        "addr:city": "Klaipėda",
        "addr:housenumber": "6",
        "addr:street": "Tiltų g.",
        "amenity": "cafe",
        "cuisine": "regional",
        "name": "Klaipėdos senamiestis",
        "website": "https://klaipedos-senamiestis.lt/lt/klaipedos-senamiestis"
      },
      "geometry": {
        "type": "Point",
        "coordinates": [
          21.1340878,
          55.7093443
        ]
      },
      "id": "node/4161124807"
    },
    {
      "type": "Feature",
      "properties": {
        "@id": "node/4320512421",
        "amenity": "cafe",
        "name": "Vero Cafe"
      },
      "geometry": {
        "type": "Point",
        "coordinates": [
          21.133952,
          55.7098071
        ]
      },
      "id": "node/4320512421"
    },
    {
      "type": "Feature",
      "properties": {
        "@id": "node/4320512693",
        "amenity": "cafe",
        "name": "Caffeine"
      },
      "geometry": {
        "type": "Point",
        "coordinates": [
          21.1336879,
          55.7097408
        ]
      },
      "id": "node/4320512693"
    },
    {
      "type": "Feature",
      "properties": {
        "@id": "node/4377693992",
        "amenity": "cafe",
        "name": "Bukowsky",
        "name:lt": "Bukowsky",
        "name:ru": "Буковски"
      },
      "geometry": {
        "type": "Point",
        "coordinates": [
          21.1323331,
          55.7093308
        ]
      },
      "id": "node/4377693992"
    },
    {
      "type": "Feature",
      "properties": {
        "@id": "node/4403336689",
        "amenity": "cafe",
        "cuisine": "vegan",
        "name": "Žalioji virtuvė"
      },
      "geometry": {
        "type": "Point",
        "coordinates": [
          21.1302647,
          55.7141126
        ]
      },
      "id": "node/4403336689"
    },
    {
      "type": "Feature",
      "properties": {
        "@id": "node/4445829091",
        "amenity": "cafe",
        "cuisine": "coffee",
        "internet_access": "wlan",
        "internet_access:fee": "no",
        "internet_access:ssid": "Max Coffee Free",
        "name": "Max Coffee",
        "name:en": "Max Coffee",
        "name:lt": "Max Coffee",
        "name:ru": "Макс Кофе",
        "opening_hours": "Mo-We 08:00-21:00; Fr-Su 08:00-22:00",
        "outdoor_seating": "yes",
        "website": "http://maxcoffee.lt"
      },
      "geometry": {
        "type": "Point",
        "coordinates": [
          21.1341387,
          55.7086246
        ]
      },
      "id": "node/4445829091"
    },
    {
      "type": "Feature",
      "properties": {
        "@id": "node/4476446175",
        "addr:city": "Klaipėda",
        "addr:housenumber": "7",
        "addr:street": "Teatro g.",
        "amenity": "cafe",
        "name": "Anikės kavinė"
      },
      "geometry": {
        "type": "Point",
        "coordinates": [
          21.1321701,
          55.7081042
        ]
      },
      "id": "node/4476446175"
    },
    {
      "type": "Feature",
      "properties": {
        "@id": "node/4476736537",
        "addr:city": "Klaipėda",
        "addr:housenumber": "9",
        "addr:street": "M. Mažvydo al.",
        "amenity": "cafe",
        "name": "Jola"
      },
      "geometry": {
        "type": "Point",
        "coordinates": [
          21.1324881,
          55.7146621
        ]
      },
      "id": "node/4476736537"
    },
    {
      "type": "Feature",
      "properties": {
        "@id": "node/4476752124",
        "addr:city": "Klaipėda",
        "addr:housenumber": "9",
        "addr:street": "H. Manto g.",
        "amenity": "cafe",
        "name": "Kavos architektai"
      },
      "geometry": {
        "type": "Point",
        "coordinates": [
          21.1299274,
          55.7139261
        ]
      },
      "id": "node/4476752124"
    },
    {
      "type": "Feature",
      "properties": {
        "@id": "node/4476766628",
        "addr:city": "Klaipėda",
        "addr:housenumber": "13",
        "addr:street": "H. Manto g.",
        "amenity": "cafe",
        "name": "Coffee Port"
      },
      "geometry": {
        "type": "Point",
        "coordinates": [
          21.1290202,
          55.7153849
        ]
      },
      "id": "node/4476766628"
    },
    {
      "type": "Feature",
      "properties": {
        "@id": "node/4610232992",
        "amenity": "cafe",
        "cuisine": "cake;ice_cream;coffee_shop",
        "internet_access": "wlan",
        "name": "Terminalo kavos studija",
        "name:lt": "Terminalo kavos studija",
        "opening_hours": "Mo-Fr 09:00-21:00; Sa 10:00-09:00"
      },
      "geometry": {
        "type": "Point",
        "coordinates": [
          21.133065,
          55.7091227
        ]
      },
      "id": "node/4610232992"
    },
    {
      "type": "Feature",
      "properties": {
        "@id": "node/4770095824",
        "amenity": "cafe",
        "name": "Max Coffee",
        "name:en": "Max Coffee",
        "name:lt": "Max Coffee",
        "name:ru": "Макс кофе"
      },
      "geometry": {
        "type": "Point",
        "coordinates": [
          21.1296429,
          55.7152786
        ]
      },
      "id": "node/4770095824"
    },
    {
      "type": "Feature",
      "properties": {
        "@id": "node/4820737440",
        "amenity": "cafe",
        "name": "Kavinė",
        "name:lt": "Kavinė"
      },
      "geometry": {
        "type": "Point",
        "coordinates": [
          21.1267504,
          55.7242337
        ]
      },
      "id": "node/4820737440"
    },
    {
      "type": "Feature",
      "properties": {
        "@id": "node/4839056825",
        "amenity": "cafe",
        "name": "Palva"
      },
      "geometry": {
        "type": "Point",
        "coordinates": [
          21.1169245,
          55.7010514
        ]
      },
      "id": "node/4839056825"
    },
    {
      "type": "Feature",
      "properties": {
        "@id": "node/4903222419",
        "addr:city": "Klaipėda",
        "addr:housenumber": "9",
        "addr:postcode": "92129",
        "addr:street": "H. Manto g.",
        "amenity": "cafe",
        "name": "Musangas",
        "website": "https://musangas.lt/"
      },
      "geometry": {
        "type": "Point",
        "coordinates": [
          21.1297874,
          55.7141842
        ]
      },
      "id": "node/4903222419"
    },
    {
      "type": "Feature",
      "properties": {
        "@id": "node/5057611122",
        "amenity": "cafe",
        "name": "Nairi"
      },
      "geometry": {
        "type": "Point",
        "coordinates": [
          21.1632262,
          55.6679093
        ]
      },
      "id": "node/5057611122"
    },
    {
      "type": "Feature",
      "properties": {
        "@id": "node/5301990721",
        "addr:city": "Klaipėda",
        "addr:housenumber": "139",
        "addr:street": "Taikos pr.",
        "amenity": "cafe",
        "name": "Boogie Woogie"
      },
      "geometry": {
        "type": "Point",
        "coordinates": [
          21.1756224,
          55.6660596
        ]
      },
      "id": "node/5301990721"
    },
    {
      "type": "Feature",
      "properties": {
        "@id": "node/5368112042",
        "addr:city": "Klaipėda",
        "addr:housenumber": "9",
        "addr:street": "S. Šimkaus g.",
        "amenity": "cafe",
        "cuisine": "regional",
        "name": "Stasio kampas",
        "opening_hours": "Mo-Fr 09:00-20:00; Sa-Su 11:00-18:00",
        "smoking": "outside",
        "wheelchair": "yes"
      },
      "geometry": {
        "type": "Point",
        "coordinates": [
          21.1290711,
          55.7128439
        ]
      },
      "id": "node/5368112042"
    },
    {
      "type": "Feature",
      "properties": {
        "@id": "node/5588894297",
        "addr:city": "Klaipėda",
        "addr:contact": "yes",
        "addr:housenumber": "10",
        "addr:street": "S. Daukanto g.",
        "amenity": "cafe",
        "internet_access": "wlan",
        "name": "Coffee King",
        "opening_hours": "Mo-Su 07:30-22:00",
        "smoking": "outside"
      },
      "geometry": {
        "type": "Point",
        "coordinates": [
          21.1283288,
          55.7152239
        ]
      },
      "id": "node/5588894297"
    },
    {
      "type": "Feature",
      "properties": {
        "@id": "node/5781782673",
        "addr:city": "Klaipėda",
        "addr:housenumber": "9",
        "addr:street": "Butkų Juzės g.",
        "amenity": "cafe",
        "cuisine": "regional",
        "name": "Cafe Klaipėda"
      },
      "geometry": {
        "type": "Point",
        "coordinates": [
          21.1376272,
          55.7198641
        ]
      },
      "id": "node/5781782673"
    },
    {
      "type": "Feature",
      "properties": {
        "@id": "node/5783709935",
        "addr:city": "Klaipėda",
        "addr:housenumber": "34",
        "addr:street": "Liepų g.",
        "amenity": "cafe",
        "name": "Liepžiedis"
      },
      "geometry": {
        "type": "Point",
        "coordinates": [
          21.1392481,
          55.7139077
        ]
      },
      "id": "node/5783709935"
    },
    {
      "type": "Feature",
      "properties": {
        "@id": "node/5806371754",
        "addr:postcode": "92131",
        "amenity": "cafe",
        "cuisine": "sandwich;ice_cream;tea;cake;coffee_shop",
        "name": "Namai Be Gliuteno",
        "name:en": "Gluten Free House"
      },
      "geometry": {
        "type": "Point",
        "coordinates": [
          21.1306198,
          55.7140196
        ]
      },
      "id": "node/5806371754"
    },
    {
      "type": "Feature",
      "properties": {
        "@id": "node/5817428991",
        "addr:city": "Klaipėda",
        "addr:housenumber": "7",
        "addr:street": "Tiltų g.",
        "amenity": "cafe",
        "description": "Šviežiai iškepti burbuliniai vafliai - pagardinti įvairiais ingredientais, ledais, vaisiais bei padažais pagal Jūsų skonį.",
        "name": "Waff House",
        "opening_hours": "Mo-Th 12:00-21:00; Fr-Sa 12:00-22:00; Su 12:00-21:00"
      },
      "geometry": {
        "type": "Point",
        "coordinates": [
          21.1353882,
          55.7089558
        ]
      },
      "id": "node/5817428991"
    },
    {
      "type": "Feature",
      "properties": {
        "@id": "node/5821814667",
        "addr:city": "Klaipėda",
        "addr:housenumber": "9",
        "addr:street": "Tilžės g.",
        "amenity": "cafe",
        "name": "Aismarės",
        "opening_hours": "Mo-Su 10:00-18:00",
        "website": "http://aismares.lt/kavine"
      },
      "geometry": {
        "type": "Point",
        "coordinates": [
          21.1443291,
          55.7065819
        ]
      },
      "id": "node/5821814667"
    },
    {
      "type": "Feature",
      "properties": {
        "@id": "node/5977568474",
        "amenity": "cafe",
        "operator": "Veramiga",
        "phone": "+370 677 68222"
      },
      "geometry": {
        "type": "Point",
        "coordinates": [
          21.1782852,
          55.6840507
        ]
      },
      "id": "node/5977568474"
    },
    {
      "type": "Feature",
      "properties": {
        "@id": "node/6590431192",
        "addr:city": "Klaipėda",
        "addr:housenumber": "83",
        "addr:postcode": "92195",
        "addr:street": "Liepų g.",
        "amenity": "cafe",
        "name": "Kombinatas",
        "website": "https://www.facebook.com/kombinatas.bar/"
      },
      "geometry": {
        "type": "Point",
        "coordinates": [
          21.1584154,
          55.7250354
        ]
      },
      "id": "node/6590431192"
    },
    {
      "type": "Feature",
      "properties": {
        "@id": "node/6669816169",
        "amenity": "cafe"
      },
      "geometry": {
        "type": "Point",
        "coordinates": [
          21.0989686,
          55.716998
        ]
      },
      "id": "node/6669816169"
    },
    {
      "type": "Feature",
      "properties": {
        "@id": "node/6670213201",
        "amenity": "cafe",
        "cuisine": "regional",
        "description": "II aukštas.",
        "name": "Laukinė vyšnia"
      },
      "geometry": {
        "type": "Point",
        "coordinates": [
          21.1249127,
          55.7288589
        ]
      },
      "id": "node/6670213201"
    },
    {
      "type": "Feature",
      "properties": {
        "@id": "node/6677589956",
        "amenity": "cafe",
        "name": "Pas Betą",
        "toilets:access": "customers",
        "wheelchair": "no"
      },
      "geometry": {
        "type": "Point",
        "coordinates": [
          21.1318812,
          55.7144261
        ]
      },
      "id": "node/6677589956"
    },
    {
      "type": "Feature",
      "properties": {
        "@id": "node/6796433085",
        "amenity": "cafe",
        "name": "10 tiltų"
      },
      "geometry": {
        "type": "Point",
        "coordinates": [
          21.1348848,
          55.7090333
        ]
      },
      "id": "node/6796433085"
    }
  ]
}