{
  "type": "FeatureCollection",
  "generator": "overpass-ide",
  "copyright": "The data included in this document is from www.openstreetmap.org. The data is made available under ODbL.",
  "timestamp": "2019-11-16T17:32:02Z",
  "features": [
    {
      "type": "Feature",
      "properties": {
        "@id": "node/474737566",
        "amenity": "restaurant",
        "cuisine": "regional",
        "name": "Devyni Baras"
      },
      "geometry": {
        "type": "Point",
        "coordinates": [
          21.1350761,
          55.7052213
        ]
      },
      "id": "node/474737566"
    },
    {
      "type": "Feature",
      "properties": {
        "@id": "node/1029996332",
        "addr:city": "Klaipėda",
        "addr:housenumber": "84",
        "addr:street": "H. Manto g.",
        "amenity": "restaurant",
        "cuisine": "pizza",
        "name": "Charlie Pizza"
      },
      "geometry": {
        "type": "Point",
        "coordinates": [
          21.1241077,
          55.72838
        ]
      },
      "id": "node/1029996332"
    },
    {
      "type": "Feature",
      "properties": {
        "@id": "node/1030930040",
        "addr:city": "Klaipėda",
        "addr:housenumber": "141",
        "addr:street": "Taikos pr.",
        "amenity": "restaurant",
        "cuisine": "pizza;regional",
        "name": "Charlie pizza",
        "wheelchair": "limited"
      },
      "geometry": {
        "type": "Point",
        "coordinates": [
          21.1773046,
          55.6632427
        ]
      },
      "id": "node/1030930040"
    },
    {
      "type": "Feature",
      "properties": {
        "@id": "node/1030930051",
        "addr:city": "Klaipėda",
        "addr:housenumber": "141",
        "addr:street": "Taikos pr.",
        "amenity": "restaurant",
        "cuisine": "chinese",
        "name": "Huang Gong"
      },
      "geometry": {
        "type": "Point",
        "coordinates": [
          21.1778639,
          55.6640788
        ]
      },
      "id": "node/1030930051"
    },
    {
      "type": "Feature",
      "properties": {
        "@id": "node/1030930096",
        "addr:city": "Klaipėda",
        "addr:housenumber": "141",
        "addr:street": "Taikos pr.",
        "amenity": "restaurant",
        "cuisine": "pizza",
        "name": "Craft Pizza",
        "opening_hours": "Mo-Su 11:00-21:00"
      },
      "geometry": {
        "type": "Point",
        "coordinates": [
          21.1777905,
          55.6641981
        ]
      },
      "id": "node/1030930096"
    },
    {
      "type": "Feature",
      "properties": {
        "@id": "node/1030930207",
        "addr:city": "Klaipėda",
        "addr:housenumber": "141",
        "addr:street": "Taikos pr.",
        "amenity": "restaurant",
        "cuisine": "italian",
        "name": "Vyšnia 4"
      },
      "geometry": {
        "type": "Point",
        "coordinates": [
          21.1779379,
          55.6639584
        ]
      },
      "id": "node/1030930207"
    },
    {
      "type": "Feature",
      "properties": {
        "@id": "node/1031471757",
        "addr:city": "Klaipėda",
        "addr:housenumber": "28",
        "addr:street": "Taikos pr.",
        "amenity": "restaurant",
        "cuisine": "pizza",
        "name": "Čili pica",
        "opening_hours": "24/7"
      },
      "geometry": {
        "type": "Point",
        "coordinates": [
          21.1475929,
          55.6977854
        ]
      },
      "id": "node/1031471757"
    },
    {
      "type": "Feature",
      "properties": {
        "@id": "node/1033070683",
        "addr:city": "Klaipėda",
        "addr:housenumber": "139",
        "addr:street": "Taikos pr.",
        "amenity": "restaurant",
        "cuisine": "pizza;regional",
        "name": "Čili pica",
        "wheelchair": "limited"
      },
      "geometry": {
        "type": "Point",
        "coordinates": [
          21.1765058,
          55.6647864
        ]
      },
      "id": "node/1033070683"
    },
    {
      "type": "Feature",
      "properties": {
        "@id": "node/1061828309",
        "amenity": "bar"
      },
      "geometry": {
        "type": "Point",
        "coordinates": [
          21.1800831,
          55.674167
        ]
      },
      "id": "node/1061828309"
    },
    {
      "type": "Feature",
      "properties": {
        "@id": "node/1102990219",
        "amenity": "cafe",
        "name": "Nerija"
      },
      "geometry": {
        "type": "Point",
        "coordinates": [
          21.1139758,
          55.7041649
        ]
      },
      "id": "node/1102990219"
    },
    {
      "type": "Feature",
      "properties": {
        "@id": "node/1372493409",
        "amenity": "restaurant",
        "name": "Friedricho Pasažas",
        "opening_hours": "Mo-Su 12:00-24:00",
        "outdoor_seating": "yes",
        "smoking": "outside",
        "website": "http://www.pasazas.lt",
        "wheelchair": "limited"
      },
      "geometry": {
        "type": "Point",
        "coordinates": [
          21.137771,
          55.7070065
        ]
      },
      "id": "node/1372493409"
    },
    {
      "type": "Feature",
      "properties": {
        "@id": "node/1788942696",
        "addr:city": "Klaipėda",
        "addr:contact": "yes",
        "addr:housenumber": "6",
        "addr:street": "M. Mažvydo al.",
        "amenity": "cafe",
        "name": "Pas Betą"
      },
      "geometry": {
        "type": "Point",
        "coordinates": [
          21.1324611,
          55.7142295
        ]
      },
      "id": "node/1788942696"
    },
    {
      "type": "Feature",
      "properties": {
        "@id": "node/1804782037",
        "amenity": "fast_food",
        "cuisine": "pizza",
        "name": "Bambola Pizza",
        "wheelchair": "limited"
      },
      "geometry": {
        "type": "Point",
        "coordinates": [
          21.1314293,
          55.7117737
        ]
      },
      "id": "node/1804782037"
    },
    {
      "type": "Feature",
      "properties": {
        "@id": "node/1804827849",
        "amenity": "fast_food",
        "name": "Hesburger"
      },
      "geometry": {
        "type": "Point",
        "coordinates": [
          21.1451587,
          55.7184666
        ]
      },
      "id": "node/1804827849"
    },
    {
      "type": "Feature",
      "properties": {
        "@id": "node/1827619752",
        "amenity": "restaurant",
        "name": "Juodasis Vilkas"
      },
      "geometry": {
        "type": "Point",
        "coordinates": [
          21.1742097,
          55.6748382
        ]
      },
      "id": "node/1827619752"
    },
    {
      "type": "Feature",
      "properties": {
        "@id": "node/2300648186",
        "amenity": "restaurant",
        "name": "Kurėnas"
      },
      "geometry": {
        "type": "Point",
        "coordinates": [
          21.1201822,
          55.7188959
        ]
      },
      "id": "node/2300648186"
    },
    {
      "type": "Feature",
      "properties": {
        "@id": "node/2425663620",
        "addr:city": "Klaipėda",
        "addr:housenumber": "12",
        "addr:street": "Liepojos g.",
        "amenity": "pub",
        "name": "Špunka",
        "real_ale": "ipa;stout;lager"
      },
      "geometry": {
        "type": "Point",
        "coordinates": [
          21.1276554,
          55.7323064
        ]
      },
      "id": "node/2425663620"
    },
    {
      "type": "Feature",
      "properties": {
        "@id": "node/2461408652",
        "addr:city": "Klaipėda",
        "addr:housenumber": "8",
        "addr:street": "Sukilėlių g.",
        "amenity": "restaurant",
        "cuisine": "regional",
        "description": "Traditional lithuanian food.",
        "email": "klaipeda@fortodvaras.lt",
        "name": "Forto dvaras",
        "opening_hours": "Mo-We 11:00-22:00; Th-Sa 11:00-24:00; Su 11:00-22:00",
        "outdoor_seating": "yes",
        "phone": "+370 640 37 654",
        "website": "http://fortodvaras.lt"
      },
      "geometry": {
        "type": "Point",
        "coordinates": [
          21.1320361,
          55.7072333
        ]
      },
      "id": "node/2461408652"
    },
    {
      "type": "Feature",
      "properties": {
        "@id": "node/2461408653",
        "addr:city": "Klaipėda",
        "addr:housenumber": "6",
        "addr:street": "Sukilėlių g.",
        "amenity": "restaurant",
        "name": "Piccolini",
        "phone": "+37061353333"
      },
      "geometry": {
        "type": "Point",
        "coordinates": [
          21.1317866,
          55.7073611
        ]
      },
      "id": "node/2461408653"
    },
    {
      "type": "Feature",
      "properties": {
        "@id": "node/2517847137",
        "addr:city": "Klaipėda",
        "addr:housenumber": "1",
        "addr:street": "Danės g.",
        "amenity": "cafe",
        "cuisine": "burger;regional;drinks",
        "internet_access": "yes",
        "name": "Meat Lovers Pub",
        "opening_hours": "Mo-Fr 9:00-22:00; Sa-Su 10:00-22:00",
        "outdoor_seating": "yes",
        "phone": "+370 652 21 998",
        "website": "https://www.facebook.com/meatloversklaipeda/"
      },
      "geometry": {
        "type": "Point",
        "coordinates": [
          21.1229963,
          55.7066004
        ]
      },
      "id": "node/2517847137"
    },
    {
      "type": "Feature",
      "properties": {
        "@id": "node/2769126589",
        "addr:city": "Klaipėda",
        "addr:housenumber": "53",
        "addr:street": "Baltijos pr.",
        "amenity": "restaurant",
        "capacity": "30",
        "cuisine": "regional",
        "name": "Martyno Mažvydo mokyklos valgykla",
        "opening_hours": "12:10-13:00"
      },
      "geometry": {
        "type": "Point",
        "coordinates": [
          21.1704885,
          55.6869468
        ]
      },
      "id": "node/2769126589"
    },
    {
      "type": "Feature",
      "properties": {
        "@id": "node/2854764620",
        "addr:city": "Klaipėda",
        "addr:housenumber": "7",
        "addr:postcode": "91190",
        "addr:street": "Varnėnų g.",
        "amenity": "restaurant",
        "name": "Ridikai",
        "phone": "+37060913320",
        "website": "https://lt-lt.facebook.com/pages/Restoranas-Ridikai-Klaipeda/174849895936126"
      },
      "geometry": {
        "type": "Point",
        "coordinates": [
          21.1436691,
          55.6894914
        ]
      },
      "id": "node/2854764620"
    },
    {
      "type": "Feature",
      "properties": {
        "@id": "node/2883827715",
        "addr:city": "Klaipėda",
        "addr:housenumber": "97B",
        "addr:postcode": "94160",
        "addr:street": "Taikos pr.",
        "amenity": "restaurant",
        "name": "Medinava"
      },
      "geometry": {
        "type": "Point",
        "coordinates": [
          21.1665388,
          55.679072
        ]
      },
      "id": "node/2883827715"
    },
    {
      "type": "Feature",
      "properties": {
        "@id": "node/2883827716",
        "addr:city": "Klaipėda",
        "addr:housenumber": "61A",
        "addr:street": "Debreceno g.",
        "amenity": "restaurant",
        "name": "Troba"
      },
      "geometry": {
        "type": "Point",
        "coordinates": [
          21.167953,
          55.6793099
        ]
      },
      "id": "node/2883827716"
    },
    {
      "type": "Feature",
      "properties": {
        "@id": "node/2883827719",
        "addr:city": "Klaipėda",
        "addr:housenumber": "101",
        "addr:street": "Taikos pr.",
        "amenity": "fast_food",
        "cuisine": "pizza",
        "name": "Pizza Express"
      },
      "geometry": {
        "type": "Point",
        "coordinates": [
          21.1675934,
          55.6786664
        ]
      },
      "id": "node/2883827719"
    },
    {
      "type": "Feature",
      "properties": {
        "@id": "node/3254862269",
        "amenity": "fast_food",
        "cuisine": "pizza",
        "name": "Čili Pizza"
      },
      "geometry": {
        "type": "Point",
        "coordinates": [
          21.1324061,
          55.7115668
        ]
      },
      "id": "node/3254862269"
    },
    {
      "type": "Feature",
      "properties": {
        "@id": "node/3543941398",
        "addr:city": "Klaipėda",
        "addr:housenumber": "4",
        "addr:street": "M. Mažvydo al.",
        "amenity": "restaurant",
        "name": "Charlie Pizza",
        "opening_hours": "Mo-Th 10:00-00:00; Fr-Sa 10:00-02:00; Su 10:00-00:00",
        "phone": "+370 612 32 354",
        "website": "https://www.charliepizza.lt/"
      },
      "geometry": {
        "type": "Point",
        "coordinates": [
          21.1310975,
          55.7138607
        ]
      },
      "id": "node/3543941398"
    },
    {
      "type": "Feature",
      "properties": {
        "@id": "node/3550109566",
        "addr:city": "Klaipėda",
        "addr:housenumber": "42",
        "addr:postcode": "92226",
        "addr:street": "Šaulių g.",
        "amenity": "bar",
        "name": "Šiaurės ratas",
        "opening_hours": "Mo-Su 08:00-23:00",
        "phone": "+370 46 210358",
        "smoking": "outside"
      },
      "geometry": {
        "type": "Point",
        "coordinates": [
          21.1296771,
          55.7191376
        ]
      },
      "id": "node/3550109566"
    },
    {
      "type": "Feature",
      "properties": {
        "@id": "node/3550173479",
        "addr:city": "Klaipėda",
        "addr:housenumber": "2",
        "addr:postcode": "92232",
        "addr:street": "Lietuvininkų a.",
        "amenity": "restaurant",
        "cuisine": "European",
        "name": "Eldorado",
        "opening_hours": "Mo-We 11:00-23:00; Th 11:00-00:00; Fr 11:00-02:00; Sa 12:00-02:00; Su 12:00-22:00",
        "phone": "+370 603 83 083"
      },
      "geometry": {
        "type": "Point",
        "coordinates": [
          21.1281794,
          55.7181628
        ]
      },
      "id": "node/3550173479"
    },
    {
      "type": "Feature",
      "properties": {
        "@id": "node/3585291036",
        "amenity": "cafe",
        "name": "Kavinė"
      },
      "geometry": {
        "type": "Point",
        "coordinates": [
          21.1391806,
          55.6889119
        ]
      },
      "id": "node/3585291036"
    },
    {
      "type": "Feature",
      "properties": {
        "@id": "node/3619421690",
        "addr:city": "Klaipėda",
        "addr:housenumber": "31A",
        "addr:street": "H. Manto g.",
        "amenity": "restaurant",
        "cuisine": "regional",
        "name": "“Žemaitija Jack”",
        "opening_hours": "Mo-We 11:00-24:00; Th-Sa 11:00-04:00; Su 12:00-24:00",
        "phone": "+370 46 410 555"
      },
      "geometry": {
        "type": "Point",
        "coordinates": [
          21.1276562,
          55.7175791
        ]
      },
      "id": "node/3619421690"
    },
    {
      "type": "Feature",
      "properties": {
        "@id": "node/3633879903",
        "addr:city": "Klaipėda",
        "addr:housenumber": "5",
        "addr:street": "Danės g.",
        "amenity": "fast_food",
        "cuisine": "Sushi",
        "name": "Meal Box"
      },
      "geometry": {
        "type": "Point",
        "coordinates": [
          21.1286011,
          55.7089392
        ]
      },
      "id": "node/3633879903"
    },
    {
      "type": "Feature",
      "properties": {
        "@id": "node/3635023491",
        "addr:city": "Klaipėda",
        "addr:housenumber": "12",
        "addr:street": "Žvejų g.",
        "alt_name": "Beer Garden Pub",
        "amenity": "restaurant",
        "name": "Katpėdėlė Mėmelis",
        "real_ale": "lager"
      },
      "geometry": {
        "type": "Point",
        "coordinates": [
          21.1307431,
          55.7090081
        ]
      },
      "id": "node/3635023491"
    },
    {
      "type": "Feature",
      "properties": {
        "@id": "node/3655509693",
        "addr:city": "Klaipėda",
        "addr:housenumber": "2",
        "addr:street": "Žvejų g.",
        "amenity": "bar",
        "name": "Faksas",
        "opening_hours": "Mo-Su 17:00-03:00",
        "smoking": "outside"
      },
      "geometry": {
        "type": "Point",
        "coordinates": [
          21.1324853,
          55.709475
        ]
      },
      "id": "node/3655509693"
    },
    {
      "type": "Feature",
      "properties": {
        "@id": "node/3668332911",
        "addr:city": "Klaipėda",
        "addr:housenumber": "2",
        "addr:street": "Bružės g.",
        "amenity": "pub",
        "name": "Check In",
        "real_ale": "ale;stout"
      },
      "geometry": {
        "type": "Point",
        "coordinates": [
          21.1350134,
          55.7050786
        ]
      },
      "id": "node/3668332911"
    },
    {
      "type": "Feature",
      "properties": {
        "@id": "node/3669890919",
        "addr:city": "Klaipėda",
        "addr:housenumber": "7",
        "addr:street": "Tomo g.",
        "amenity": "pub",
        "name": "Leika",
        "name:lt": "Leika",
        "name:ru": "Лейка",
        "real_ale": "ipa;stout"
      },
      "geometry": {
        "type": "Point",
        "coordinates": [
          21.1341109,
          55.7079636
        ]
      },
      "id": "node/3669890919"
    },
    {
      "type": "Feature",
      "properties": {
        "@id": "node/3669890920",
        "addr:city": "Klaipėda",
        "addr:housenumber": "10",
        "addr:street": "Dariaus ir Girėno g.",
        "amenity": "pub",
        "name": "Sporto baras",
        "real_ale": "ale;lager"
      },
      "geometry": {
        "type": "Point",
        "coordinates": [
          21.1220675,
          55.7208861
        ]
      },
      "id": "node/3669890920"
    },
    {
      "type": "Feature",
      "properties": {
        "@id": "node/3669890921",
        "addr:city": "Klaipėda",
        "addr:housenumber": "36",
        "addr:street": "Šaulių g.",
        "amenity": "pub",
        "name": "Tabu",
        "real_ale": "lager;ale"
      },
      "geometry": {
        "type": "Point",
        "coordinates": [
          21.1301815,
          55.7172983
        ]
      },
      "id": "node/3669890921"
    },
    {
      "type": "Feature",
      "properties": {
        "@id": "node/3732070927",
        "addr:city": "Klaipėda",
        "addr:housenumber": "64",
        "addr:street": "Taikos pr.",
        "amenity": "fast_food",
        "cuisine": "sandwich",
        "name": "Mabela Bistro",
        "opening_hours": "Mo-Th 09:00-03:00; Fr-Sa 09:00-05:00; Su 11:00-03:00",
        "operator": "UAB \"Mabena'",
        "phone": "+37065900300",
        "takeaway": "yes"
      },
      "geometry": {
        "type": "Point",
        "coordinates": [
          21.1570297,
          55.6867905
        ]
      },
      "id": "node/3732070927"
    },
    {
      "type": "Feature",
      "properties": {
        "@id": "node/4161124807",
        "addr:city": "Klaipėda",
        "addr:housenumber": "6",
        "addr:street": "Tiltų g.",
        "amenity": "cafe",
        "cuisine": "regional",
        "name": "Klaipėdos senamiestis",
        "website": "https://klaipedos-senamiestis.lt/lt/klaipedos-senamiestis"
      },
      "geometry": {
        "type": "Point",
        "coordinates": [
          21.1340878,
          55.7093443
        ]
      },
      "id": "node/4161124807"
    },
    {
      "type": "Feature",
      "properties": {
        "@id": "node/4228221601",
        "amenity": "restaurant",
        "cuisine": "international",
        "email": "info@bluez.lt",
        "internet_access": "wlan",
        "name": "Muzikinis klubas „Bluez“",
        "opening_hours": "Su-Th 10:00-22:00; Fr-Sa 14:00-04:00",
        "phone": "+37064334344",
        "website": "http://www.bluez.lt"
      },
      "geometry": {
        "type": "Point",
        "coordinates": [
          21.1313171,
          55.7091544
        ]
      },
      "id": "node/4228221601"
    },
    {
      "type": "Feature",
      "properties": {
        "@id": "node/4260101191",
        "amenity": "bar",
        "name": "Seven Pub"
      },
      "geometry": {
        "type": "Point",
        "coordinates": [
          21.1327884,
          55.7093019
        ]
      },
      "id": "node/4260101191"
    },
    {
      "type": "Feature",
      "properties": {
        "@id": "node/4268152990",
        "amenity": "bar",
        "internet_access": "wlan",
        "name": "Grill"
      },
      "geometry": {
        "type": "Point",
        "coordinates": [
          21.1928208,
          55.6643101
        ]
      },
      "id": "node/4268152990"
    },
    {
      "type": "Feature",
      "properties": {
        "@id": "node/4281991105",
        "amenity": "bar",
        "cuisine": "diner;international",
        "name": "Malibu"
      },
      "geometry": {
        "type": "Point",
        "coordinates": [
          21.1905062,
          55.671705
        ]
      },
      "id": "node/4281991105"
    },
    {
      "type": "Feature",
      "properties": {
        "@id": "node/4281991212",
        "amenity": "bar",
        "email": "demitus1@gmail.com",
        "name": "Alaus uostas",
        "opening_hours": "Mo-Su 10:00-22:00"
      },
      "geometry": {
        "type": "Point",
        "coordinates": [
          21.1913227,
          55.672297
        ]
      },
      "id": "node/4281991212"
    },
    {
      "type": "Feature",
      "properties": {
        "@id": "node/4286326405",
        "amenity": "restaurant",
        "name": "Meridianas"
      },
      "geometry": {
        "type": "Point",
        "coordinates": [
          21.1350044,
          55.710355
        ]
      },
      "id": "node/4286326405"
    },
    {
      "type": "Feature",
      "properties": {
        "@id": "node/4312652391",
        "amenity": "pub",
        "name": "Irish Nese Pub",
        "opening_hours": "Mo-Th 14:00-02:00; Fr-Sa 14:00-07:00; Su 14:00-00:00",
        "phone": "+370 700 55 555",
        "website": "https://nesepb.lt/"
      },
      "geometry": {
        "type": "Point",
        "coordinates": [
          21.132452,
          55.7079264
        ]
      },
      "id": "node/4312652391"
    },
    {
      "type": "Feature",
      "properties": {
        "@id": "node/4318284803",
        "addr:city": "Klaipėda",
        "addr:country": "LT",
        "addr:housenumber": "20",
        "addr:street": "Didžioji Vandens g.",
        "amenity": "bar",
        "name": "IQ baras",
        "website": "http://www.facebook.com/iqbaras"
      },
      "geometry": {
        "type": "Point",
        "coordinates": [
          21.1359971,
          55.7081444
        ]
      },
      "id": "node/4318284803"
    },
    {
      "type": "Feature",
      "properties": {
        "@id": "node/4320512399",
        "addr:city": "Klaipėda",
        "addr:housenumber": "6",
        "addr:street": "Tiltų g.",
        "amenity": "restaurant",
        "name": "Stora antis",
        "name:lt": "Stora antis",
        "name:ru": "Толстая утка",
        "website": "https://www.storaantis.lt/"
      },
      "geometry": {
        "type": "Point",
        "coordinates": [
          21.1340456,
          55.709423
        ]
      },
      "id": "node/4320512399"
    },
    {
      "type": "Feature",
      "properties": {
        "@id": "node/4320512421",
        "amenity": "cafe",
        "name": "Vero Cafe"
      },
      "geometry": {
        "type": "Point",
        "coordinates": [
          21.133952,
          55.7098071
        ]
      },
      "id": "node/4320512421"
    },
    {
      "type": "Feature",
      "properties": {
        "@id": "node/4320512693",
        "amenity": "cafe",
        "name": "Caffeine"
      },
      "geometry": {
        "type": "Point",
        "coordinates": [
          21.1336879,
          55.7097408
        ]
      },
      "id": "node/4320512693"
    },
    {
      "type": "Feature",
      "properties": {
        "@id": "node/4320515812",
        "addr:city": "Klaipėda",
        "addr:housenumber": "1A",
        "addr:street": "Naujojo Sodo g.",
        "amenity": "bar",
        "level": "21",
        "name": "Sky21"
      },
      "geometry": {
        "type": "Point",
        "coordinates": [
          21.1296531,
          55.7107982
        ]
      },
      "id": "node/4320515812"
    },
    {
      "type": "Feature",
      "properties": {
        "@id": "node/4320522789",
        "addr:city": "Klaipėda",
        "addr:housenumber": "12",
        "addr:street": "Liepojos g.",
        "amenity": "restaurant",
        "cuisine": "pizza",
        "name": "Express Pizza",
        "takeaway": "yes"
      },
      "geometry": {
        "type": "Point",
        "coordinates": [
          21.1274868,
          55.7322185
        ]
      },
      "id": "node/4320522789"
    },
    {
      "type": "Feature",
      "properties": {
        "@id": "node/4325036850",
        "addr:city": "Klaipėda",
        "addr:housenumber": "1",
        "addr:street": "Daržų g.",
        "amenity": "restaurant",
        "cuisine": "chinese",
        "name": "Auksinis liūtas"
      },
      "geometry": {
        "type": "Point",
        "coordinates": [
          21.136882,
          55.7071315
        ]
      },
      "id": "node/4325036850"
    },
    {
      "type": "Feature",
      "properties": {
        "@id": "node/4372187269",
        "addr:city": "Klaipėda",
        "addr:housenumber": "131",
        "addr:street": "Minijos g.",
        "amenity": "fast_food",
        "cuisine": "pizza",
        "name": "Boso pica",
        "website": "http://www.bosopica.lt"
      },
      "geometry": {
        "type": "Point",
        "coordinates": [
          21.1514416,
          55.6810331
        ]
      },
      "id": "node/4372187269"
    },
    {
      "type": "Feature",
      "properties": {
        "@id": "node/4377693992",
        "amenity": "cafe",
        "name": "Bukowsky",
        "name:lt": "Bukowsky",
        "name:ru": "Буковски"
      },
      "geometry": {
        "type": "Point",
        "coordinates": [
          21.1323331,
          55.7093308
        ]
      },
      "id": "node/4377693992"
    },
    {
      "type": "Feature",
      "properties": {
        "@id": "node/4403336689",
        "amenity": "cafe",
        "cuisine": "vegan",
        "name": "Žalioji virtuvė"
      },
      "geometry": {
        "type": "Point",
        "coordinates": [
          21.1302647,
          55.7141126
        ]
      },
      "id": "node/4403336689"
    },
    {
      "type": "Feature",
      "properties": {
        "@id": "node/4423946789",
        "addr:city": "Klaipėda",
        "addr:housenumber": "13",
        "addr:street": "Laukininkų g.",
        "amenity": "fast_food",
        "name": "Šefo kebabai",
        "name:en": "Chefs kebabs1",
        "name:lt": "Šefo kebabai",
        "opening_hours": "Mo-Su 10:00-22:00"
      },
      "geometry": {
        "type": "Point",
        "coordinates": [
          21.1911598,
          55.6645275
        ]
      },
      "id": "node/4423946789"
    },
    {
      "type": "Feature",
      "properties": {
        "@id": "node/4445829091",
        "amenity": "cafe",
        "cuisine": "coffee",
        "internet_access": "wlan",
        "internet_access:fee": "no",
        "internet_access:ssid": "Max Coffee Free",
        "name": "Max Coffee",
        "name:en": "Max Coffee",
        "name:lt": "Max Coffee",
        "name:ru": "Макс Кофе",
        "opening_hours": "Mo-We 08:00-21:00; Fr-Su 08:00-22:00",
        "outdoor_seating": "yes",
        "website": "http://maxcoffee.lt"
      },
      "geometry": {
        "type": "Point",
        "coordinates": [
          21.1341387,
          55.7086246
        ]
      },
      "id": "node/4445829091"
    },
    {
      "type": "Feature",
      "properties": {
        "@id": "node/4476446175",
        "addr:city": "Klaipėda",
        "addr:housenumber": "7",
        "addr:street": "Teatro g.",
        "amenity": "cafe",
        "name": "Anikės kavinė"
      },
      "geometry": {
        "type": "Point",
        "coordinates": [
          21.1321701,
          55.7081042
        ]
      },
      "id": "node/4476446175"
    },
    {
      "type": "Feature",
      "properties": {
        "@id": "node/4476502233",
        "amenity": "bar",
        "name": "Storas katinas",
        "name:en": "Fat cat",
        "name:lt": "Storas katinas"
      },
      "geometry": {
        "type": "Point",
        "coordinates": [
          21.1313663,
          55.7085522
        ]
      },
      "id": "node/4476502233"
    },
    {
      "type": "Feature",
      "properties": {
        "@id": "node/4476519003",
        "addr:city": "Klaipėda",
        "addr:housenumber": "4",
        "addr:street": "Liepų g.",
        "amenity": "restaurant",
        "name": "Monai"
      },
      "geometry": {
        "type": "Point",
        "coordinates": [
          21.1326795,
          55.711692
        ]
      },
      "id": "node/4476519003"
    },
    {
      "type": "Feature",
      "properties": {
        "@id": "node/4476556554",
        "addr:city": "Klaipėda",
        "addr:housenumber": "10",
        "addr:street": "Kepėjų g.",
        "amenity": "pub",
        "description": "Kiekvienas alaus gurmanas čia gali išmėginti šešiolika skirtingų pilstomo alaus rūšių iš įvairių Lietuvos bravorų bei alaus buteliuose iš viso pasaulio. Galimi žaidimai - olandiškos šaškės, stalo futbolas.",
        "name": "Žvejų baras",
        "opening_hours": "Mo-We 17:00-24:00; Th 17:00-02:00; Fr-Sa 17:00-04:00; Su 17:00-24:00",
        "outdoor_seating": "yes",
        "phone": "+370 699 98762",
        "real_ale": "ipa;stout",
        "smoking": "outside",
        "website": "http://www.zvejubaras.lt/"
      },
      "geometry": {
        "type": "Point",
        "coordinates": [
          21.1337166,
          55.7089096
        ]
      },
      "id": "node/4476556554"
    },
    {
      "type": "Feature",
      "properties": {
        "@id": "node/4476572889",
        "addr:city": "Klaipėda",
        "addr:housenumber": "1A",
        "addr:street": "Naujojo Sodo g.",
        "amenity": "restaurant",
        "level": "20",
        "name": "Vivalavita",
        "opening_hours": "Mo-Th 12:00-01:00; Fr-Sa 12:00-03:00; Su 12:00-01:00",
        "website": "https://ambertonhotels.com/lt/klaipeda/restoranai/restoranas-vivalavita/"
      },
      "geometry": {
        "type": "Point",
        "coordinates": [
          21.1296685,
          55.7109062
        ]
      },
      "id": "node/4476572889"
    },
    {
      "type": "Feature",
      "properties": {
        "@id": "node/4476576401",
        "addr:city": "Klaipėda",
        "addr:housenumber": "1",
        "addr:street": "Naujojo Sodo g.",
        "amenity": "restaurant",
        "description": "Amberton viešbučio restoranas XII (pavadinimas kilęs nuo viešbučio 12-ojo aukšto, kur jis ir įsikūręs) – vienas ilgiausiai gyvuojančių restoranų Klaipėdos mieste. Kiekvieną darbo dieną nuo 12:00 iki 15:00 val. restorane XII patiekiami dienos pietūs.",
        "level": "12",
        "name": "XII",
        "opening_hours": "Mo-Th 12:00-01:00; Fr-Sa 12:00-03:00; Su 12:00-01:00",
        "outdoor_seating": "no",
        "phone": "+370 46 404375",
        "website": "https://ambertonhotels.com/lt/klaipeda/restoranai/restoranas-xii/"
      },
      "geometry": {
        "type": "Point",
        "coordinates": [
          21.1305483,
          55.7110663
        ]
      },
      "id": "node/4476576401"
    },
    {
      "type": "Feature",
      "properties": {
        "@id": "node/4476638302",
        "addr:city": "Klaipėda",
        "addr:housenumber": "15",
        "addr:street": "Danės g.",
        "amenity": "bar",
        "name": "Hero Cocktail Bar"
      },
      "geometry": {
        "type": "Point",
        "coordinates": [
          21.1299528,
          55.7095824
        ]
      },
      "id": "node/4476638302"
    },
    {
      "type": "Feature",
      "properties": {
        "@id": "node/4476709215",
        "addr:city": "Klaipėda",
        "addr:housenumber": "5A",
        "addr:street": "Bangų g.",
        "amenity": "bar",
        "level": "1",
        "name": "Raketa"
      },
      "geometry": {
        "type": "Point",
        "coordinates": [
          21.1409439,
          55.7079673
        ]
      },
      "id": "node/4476709215"
    },
    {
      "type": "Feature",
      "properties": {
        "@id": "node/4476715318",
        "addr:city": "Klaipėda",
        "addr:housenumber": "23",
        "addr:street": "Turgaus g.",
        "amenity": "restaurant",
        "cuisine": "chinese",
        "name": "Jing Bin Lou"
      },
      "geometry": {
        "type": "Point",
        "coordinates": [
          21.1354904,
          55.7093881
        ]
      },
      "id": "node/4476715318"
    },
    {
      "type": "Feature",
      "properties": {
        "@id": "node/4476726585",
        "addr:city": "Klaipėda",
        "addr:housenumber": "12",
        "addr:street": "Žvejų g.",
        "amenity": "bar",
        "name": "Beer Garden"
      },
      "geometry": {
        "type": "Point",
        "coordinates": [
          21.1308486,
          55.7089596
        ]
      },
      "id": "node/4476726585"
    },
    {
      "type": "Feature",
      "properties": {
        "@id": "node/4476736537",
        "addr:city": "Klaipėda",
        "addr:housenumber": "9",
        "addr:street": "M. Mažvydo al.",
        "amenity": "cafe",
        "name": "Jola"
      },
      "geometry": {
        "type": "Point",
        "coordinates": [
          21.1324881,
          55.7146621
        ]
      },
      "id": "node/4476736537"
    },
    {
      "type": "Feature",
      "properties": {
        "@id": "node/4476752124",
        "addr:city": "Klaipėda",
        "addr:housenumber": "9",
        "addr:street": "H. Manto g.",
        "amenity": "cafe",
        "name": "Kavos architektai"
      },
      "geometry": {
        "type": "Point",
        "coordinates": [
          21.1299274,
          55.7139261
        ]
      },
      "id": "node/4476752124"
    },
    {
      "type": "Feature",
      "properties": {
        "@id": "node/4476756378",
        "addr:city": "Klaipėda",
        "addr:housenumber": "25",
        "addr:street": "H. Manto g.",
        "amenity": "bar",
        "name": "Pauzė"
      },
      "geometry": {
        "type": "Point",
        "coordinates": [
          21.1275992,
          55.7165952
        ]
      },
      "id": "node/4476756378"
    },
    {
      "type": "Feature",
      "properties": {
        "@id": "node/4476766628",
        "addr:city": "Klaipėda",
        "addr:housenumber": "13",
        "addr:street": "H. Manto g.",
        "amenity": "cafe",
        "name": "Coffee Port"
      },
      "geometry": {
        "type": "Point",
        "coordinates": [
          21.1290202,
          55.7153849
        ]
      },
      "id": "node/4476766628"
    },
    {
      "type": "Feature",
      "properties": {
        "@id": "node/4511266901",
        "addr:city": "Klaipėda",
        "addr:housenumber": "66A",
        "addr:street": "Taikos pr.",
        "amenity": "restaurant",
        "cuisine": "chinese",
        "name": "Kinų bambukas",
        "name:en": "Chinese bamboo",
        "name:lt": "Kinų bambukas",
        "opening_hours": "Mo-Su 11:00-22:00",
        "website": "http://kinubambukas.lt/kontaktai/h.-manto-43.html"
      },
      "geometry": {
        "type": "Point",
        "coordinates": [
          21.1597665,
          55.6844427
        ]
      },
      "id": "node/4511266901"
    },
    {
      "type": "Feature",
      "properties": {
        "@id": "node/4511272191",
        "amenity": "restaurant",
        "cuisine": "georgian",
        "name": "Gruziniška legenda",
        "name:en": "Georgian legend",
        "name:lt": "Gruziniška legenda",
        "opening_hours": "Mo-Su 10:00-23:00",
        "phone": "+37063132323"
      },
      "geometry": {
        "type": "Point",
        "coordinates": [
          21.1459382,
          55.6986797
        ]
      },
      "id": "node/4511272191"
    },
    {
      "type": "Feature",
      "properties": {
        "@id": "node/4610232992",
        "amenity": "cafe",
        "cuisine": "cake;ice_cream;coffee_shop",
        "internet_access": "wlan",
        "name": "Terminalo kavos studija",
        "name:lt": "Terminalo kavos studija",
        "opening_hours": "Mo-Fr 09:00-21:00; Sa 10:00-09:00"
      },
      "geometry": {
        "type": "Point",
        "coordinates": [
          21.133065,
          55.7091227
        ]
      },
      "id": "node/4610232992"
    },
    {
      "type": "Feature",
      "properties": {
        "@id": "node/4635065391",
        "amenity": "restaurant",
        "cuisine": "sushi;asian",
        "name": "Kanpai"
      },
      "geometry": {
        "type": "Point",
        "coordinates": [
          21.1313836,
          55.7088634
        ]
      },
      "id": "node/4635065391"
    },
    {
      "type": "Feature",
      "properties": {
        "@id": "node/4658796095",
        "amenity": "bar",
        "name": "Coco",
        "name:en": "Coco",
        "name:lt": "Coco",
        "name:ru": "Коко"
      },
      "geometry": {
        "type": "Point",
        "coordinates": [
          21.130995,
          55.7090963
        ]
      },
      "id": "node/4658796095"
    },
    {
      "type": "Feature",
      "properties": {
        "@id": "node/4692009940",
        "addr:city": "Klaipėda",
        "addr:housenumber": "78",
        "addr:street": "Taikos pr.",
        "amenity": "bar",
        "name": "Plius-minus"
      },
      "geometry": {
        "type": "Point",
        "coordinates": [
          21.1657083,
          55.6773934
        ]
      },
      "id": "node/4692009940"
    },
    {
      "type": "Feature",
      "properties": {
        "@id": "node/4722365292",
        "addr:city": "Klaipėda",
        "addr:housenumber": "1",
        "addr:street": "Naujojo Sodo g.",
        "amenity": "bar",
        "name": "Kiss",
        "opening_hours": "Mo-Su 21:00-06:00",
        "website": "https://naktiniaiklubai.lt/kokteiliu-barai/klaipedoje/kiss"
      },
      "geometry": {
        "type": "Point",
        "coordinates": [
          21.1308559,
          55.7106668
        ]
      },
      "id": "node/4722365292"
    },
    {
      "type": "Feature",
      "properties": {
        "@id": "node/4759218743",
        "addr:postcode": "91246",
        "amenity": "bar",
        "internet_access": "wlan",
        "name": "Achtung Baby",
        "opening_hours": "Tu-Th 15:00-23:00; Fr-Sa 15:00-01:00",
        "phone": "+370 699 90 028",
        "website": "http://achtungbaby.lt/"
      },
      "geometry": {
        "type": "Point",
        "coordinates": [
          21.1347432,
          55.70687
        ]
      },
      "id": "node/4759218743"
    },
    {
      "type": "Feature",
      "properties": {
        "@id": "node/4770095823",
        "amenity": "restaurant",
        "name": "Trapiche Steakhouse",
        "name:en": "Trapiche Steakhouse",
        "name:lt": "Trapiche Steakhouse",
        "name:ru": "Трапичхе Стейкхаус"
      },
      "geometry": {
        "type": "Point",
        "coordinates": [
          21.137334,
          55.7066718
        ]
      },
      "id": "node/4770095823"
    },
    {
      "type": "Feature",
      "properties": {
        "@id": "node/4770095824",
        "amenity": "cafe",
        "name": "Max Coffee",
        "name:en": "Max Coffee",
        "name:lt": "Max Coffee",
        "name:ru": "Макс кофе"
      },
      "geometry": {
        "type": "Point",
        "coordinates": [
          21.1296429,
          55.7152786
        ]
      },
      "id": "node/4770095824"
    },
    {
      "type": "Feature",
      "properties": {
        "@id": "node/4771167021",
        "addr:city": "Klaipėda",
        "addr:housenumber": "3",
        "addr:street": "Puodžių g.",
        "amenity": "restaurant",
        "cuisine": "regional",
        "name": "Lietuviški patiekalai",
        "name:en": "Lithuanian dishes",
        "name:lt": "Lietuviški patiekalai",
        "name:ru": "Литовские яства",
        "phone": "+370 46 216402",
        "wheelchair": "no"
      },
      "geometry": {
        "type": "Point",
        "coordinates": [
          21.1287981,
          55.7117025
        ]
      },
      "id": "node/4771167021"
    },
    {
      "type": "Feature",
      "properties": {
        "@id": "node/4816066527",
        "amenity": "bar",
        "name": "Alynas",
        "name:en": "Fresh beer pub \"alynas\"",
        "name:lt": "Alynas"
      },
      "geometry": {
        "type": "Point",
        "coordinates": [
          21.1413593,
          55.7273415
        ]
      },
      "id": "node/4816066527"
    },
    {
      "type": "Feature",
      "properties": {
        "@id": "node/4816066528",
        "amenity": "fast_food",
        "name": "Picerija",
        "name:lt": "Picerija"
      },
      "geometry": {
        "type": "Point",
        "coordinates": [
          21.1416118,
          55.7273638
        ]
      },
      "id": "node/4816066528"
    },
    {
      "type": "Feature",
      "properties": {
        "@id": "node/4816066529",
        "amenity": "fast_food",
        "name": "Sushi bar",
        "name:lt": "Sushi bar"
      },
      "geometry": {
        "type": "Point",
        "coordinates": [
          21.1413229,
          55.7275218
        ]
      },
      "id": "node/4816066529"
    },
    {
      "type": "Feature",
      "properties": {
        "@id": "node/4820737440",
        "amenity": "cafe",
        "name": "Kavinė",
        "name:lt": "Kavinė"
      },
      "geometry": {
        "type": "Point",
        "coordinates": [
          21.1267504,
          55.7242337
        ]
      },
      "id": "node/4820737440"
    },
    {
      "type": "Feature",
      "properties": {
        "@id": "node/4833154333",
        "addr:city": "Klaipėda",
        "addr:housenumber": "35",
        "addr:street": "Šilutės pl.",
        "amenity": "fast_food",
        "cuisine": "regional;pizza",
        "name": "Čili pica",
        "name:lt": "Čili pica"
      },
      "geometry": {
        "type": "Point",
        "coordinates": [
          21.1826225,
          55.6924086
        ]
      },
      "id": "node/4833154333"
    },
    {
      "type": "Feature",
      "properties": {
        "@id": "node/4839056825",
        "amenity": "cafe",
        "name": "Palva"
      },
      "geometry": {
        "type": "Point",
        "coordinates": [
          21.1169245,
          55.7010514
        ]
      },
      "id": "node/4839056825"
    },
    {
      "type": "Feature",
      "properties": {
        "@id": "node/4841956692",
        "addr:city": "Klaipėda",
        "addr:housenumber": "1",
        "addr:street": "Naujojo Sodo g.",
        "amenity": "restaurant",
        "cuisine": "sushi",
        "delivery": "yes",
        "email": "klaipeda@sushiexpress.lt",
        "name": "Sushi Express",
        "opening_hours": "Mo-Su 10:00-22:00",
        "outdoor_seating": "yes",
        "phone": "+370 630 45444",
        "takeaway": "yes",
        "website": "https://www.sushiexpress.lt/"
      },
      "geometry": {
        "type": "Point",
        "coordinates": [
          21.1311924,
          55.7112753
        ]
      },
      "id": "node/4841956692"
    },
    {
      "type": "Feature",
      "properties": {
        "@id": "node/4903222419",
        "addr:city": "Klaipėda",
        "addr:housenumber": "9",
        "addr:postcode": "92129",
        "addr:street": "H. Manto g.",
        "amenity": "cafe",
        "name": "Musangas",
        "website": "https://musangas.lt/"
      },
      "geometry": {
        "type": "Point",
        "coordinates": [
          21.1297874,
          55.7141842
        ]
      },
      "id": "node/4903222419"
    },
    {
      "type": "Feature",
      "properties": {
        "@id": "node/4948266421",
        "addr:city": "Klaipėda",
        "addr:housenumber": "2",
        "addr:street": "Tilžės g.",
        "amenity": "bar",
        "brewery": "yes",
        "name": "Gero alaus parduotuvė",
        "name:en": "Good beer shop",
        "name:lt": "Gero alaus parduotuvė"
      },
      "geometry": {
        "type": "Point",
        "coordinates": [
          21.1432859,
          55.7062722
        ]
      },
      "id": "node/4948266421"
    },
    {
      "type": "Feature",
      "properties": {
        "@id": "node/4964581722",
        "amenity": "fast_food",
        "name": "Salsa Duo"
      },
      "geometry": {
        "type": "Point",
        "coordinates": [
          21.1289788,
          55.7079936
        ]
      },
      "id": "node/4964581722"
    },
    {
      "type": "Feature",
      "properties": {
        "@id": "node/4964581724",
        "amenity": "fast_food",
        "name": "Greitas maistas",
        "name:en": "Fast Food",
        "name:lt": "Greitas maistas"
      },
      "geometry": {
        "type": "Point",
        "coordinates": [
          21.1569688,
          55.6874083
        ]
      },
      "id": "node/4964581724"
    },
    {
      "type": "Feature",
      "properties": {
        "@id": "node/4964582221",
        "amenity": "bar",
        "name": "Baras Pinta",
        "name:en": "Pub Pinta",
        "name:lt": "Baras Pinta"
      },
      "geometry": {
        "type": "Point",
        "coordinates": [
          21.1524302,
          55.6779077
        ]
      },
      "id": "node/4964582221"
    },
    {
      "type": "Feature",
      "properties": {
        "@id": "node/5002908882",
        "addr:city": "Klaipėda",
        "addr:housenumber": "38",
        "addr:street": "H. Manto g.",
        "amenity": "restaurant",
        "cuisine": "pizza",
        "delivery": "yes",
        "name": "Dodo Pizza",
        "opening_hours": "Mo-Th 09:00-23:00; Fr 09:00-00:00; Sa 09:00-01:00; Su 09:00-23:00",
        "outdoor_seating": "no",
        "phone": "+37046311333",
        "smoking": "no",
        "takeaway": "yes",
        "website": "https://dodopizza.lt/Klaipeda"
      },
      "geometry": {
        "type": "Point",
        "coordinates": [
          21.1283346,
          55.7172822
        ]
      },
      "id": "node/5002908882"
    },
    {
      "type": "Feature",
      "properties": {
        "@id": "node/5002916277",
        "addr:city": "Klaipėda",
        "addr:housenumber": "10",
        "addr:street": "Turgaus g.",
        "amenity": "restaurant",
        "cuisine": "pizza",
        "email": "info@baltoslekstes.lt",
        "name": "Baltos Lėkštės",
        "opening_hours": "Mo-Su 08:00-22:00",
        "outdoor_seating": "no",
        "phone": "+37062441640",
        "website": "https://www.facebook.com/pg/Baltos-Lėkštės-377087552650166"
      },
      "geometry": {
        "type": "Point",
        "coordinates": [
          21.1344282,
          55.7084416
        ]
      },
      "id": "node/5002916277"
    },
    {
      "type": "Feature",
      "properties": {
        "@id": "node/5057611122",
        "amenity": "cafe",
        "name": "Nairi"
      },
      "geometry": {
        "type": "Point",
        "coordinates": [
          21.1632262,
          55.6679093
        ]
      },
      "id": "node/5057611122"
    },
    {
      "type": "Feature",
      "properties": {
        "@id": "node/5111408727",
        "amenity": "fast_food",
        "name": "Suši express",
        "name:lt": "Suši express"
      },
      "geometry": {
        "type": "Point",
        "coordinates": [
          21.1402242,
          55.7126367
        ]
      },
      "id": "node/5111408727"
    },
    {
      "type": "Feature",
      "properties": {
        "@id": "node/5111444822",
        "amenity": "restaurant",
        "name": "Mažioji Turkija",
        "name:lt": "Mažioji Turkija",
        "name:ru": "Малая Турция"
      },
      "geometry": {
        "type": "Point",
        "coordinates": [
          21.1719526,
          55.6717742
        ]
      },
      "id": "node/5111444822"
    },
    {
      "type": "Feature",
      "properties": {
        "@id": "node/5291913415",
        "addr:city": "Klaipėda",
        "addr:contact": "yes",
        "addr:housenumber": "61",
        "addr:street": "Taikos pr.",
        "amenity": "pub",
        "name": "Beer Factory",
        "real_ale": "ipa;ale;lager;stout",
        "shop": "alcohol"
      },
      "geometry": {
        "type": "Point",
        "coordinates": [
          21.1553406,
          55.6922767
        ]
      },
      "id": "node/5291913415"
    },
    {
      "type": "Feature",
      "properties": {
        "@id": "node/5291913416",
        "addr:city": "Klaipėda",
        "addr:contact": "yes",
        "addr:housenumber": "19",
        "addr:street": "S. Daukanto g.",
        "amenity": "pub",
        "name": "Memelio alinė",
        "real_ale": "lager"
      },
      "geometry": {
        "type": "Point",
        "coordinates": [
          21.1298608,
          55.7159792
        ]
      },
      "id": "node/5291913416"
    },
    {
      "type": "Feature",
      "properties": {
        "@id": "node/5296410221",
        "amenity": "fast_food",
        "name": "Grūziniška kepyklėlė",
        "name:en": "Georgian bakery",
        "name:lt": "Grūziniška kepyklėlė",
        "name:ru": "Грузинская пекарня",
        "opening_hours": "Mo-Su 09:00-18:00",
        "phone": "+37064337177"
      },
      "geometry": {
        "type": "Point",
        "coordinates": [
          21.1721657,
          55.6723752
        ]
      },
      "id": "node/5296410221"
    },
    {
      "type": "Feature",
      "properties": {
        "@id": "node/5297145721",
        "amenity": "bar",
        "internet_access": "wlan",
        "name": "Alynas",
        "website": "https://www.alynas.lt/"
      },
      "geometry": {
        "type": "Point",
        "coordinates": [
          21.1779687,
          55.6627903
        ]
      },
      "id": "node/5297145721"
    },
    {
      "type": "Feature",
      "properties": {
        "@id": "node/5301990721",
        "addr:city": "Klaipėda",
        "addr:housenumber": "139",
        "addr:street": "Taikos pr.",
        "amenity": "cafe",
        "name": "Boogie Woogie"
      },
      "geometry": {
        "type": "Point",
        "coordinates": [
          21.1756224,
          55.6660596
        ]
      },
      "id": "node/5301990721"
    },
    {
      "type": "Feature",
      "properties": {
        "@id": "node/5365865305",
        "amenity": "restaurant",
        "name": "Biskvitas"
      },
      "geometry": {
        "type": "Point",
        "coordinates": [
          21.1458181,
          55.7186329
        ]
      },
      "id": "node/5365865305"
    },
    {
      "type": "Feature",
      "properties": {
        "@id": "node/5366123543",
        "amenity": "restaurant",
        "cuisine": "pizza",
        "name": "Pipita"
      },
      "geometry": {
        "type": "Point",
        "coordinates": [
          21.1348301,
          55.7190197
        ]
      },
      "id": "node/5366123543"
    },
    {
      "type": "Feature",
      "properties": {
        "@id": "node/5368112042",
        "addr:city": "Klaipėda",
        "addr:housenumber": "9",
        "addr:street": "S. Šimkaus g.",
        "amenity": "cafe",
        "cuisine": "regional",
        "name": "Stasio kampas",
        "opening_hours": "Mo-Fr 09:00-20:00; Sa-Su 11:00-18:00",
        "smoking": "outside",
        "wheelchair": "yes"
      },
      "geometry": {
        "type": "Point",
        "coordinates": [
          21.1290711,
          55.7128439
        ]
      },
      "id": "node/5368112042"
    },
    {
      "type": "Feature",
      "properties": {
        "@id": "node/5446109913",
        "addr:city": "Klaipėda",
        "addr:housenumber": "44",
        "addr:street": "I. Kanto g.",
        "amenity": "restaurant",
        "name": "Skandalas",
        "opening_hours": "Mo-Th 12:00-00:00; Fr-Sa 12:00-01:00; Su 12:00-23:00",
        "outdoor_seating": "yes",
        "website": "http://restoranaskandalas.lt/"
      },
      "geometry": {
        "type": "Point",
        "coordinates": [
          21.1217657,
          55.7184542
        ]
      },
      "id": "node/5446109913"
    },
    {
      "type": "Feature",
      "properties": {
        "@id": "node/5588894184",
        "addr:city": "Klaipėda",
        "addr:housenumber": "12",
        "addr:street": "S. Šimkaus g.",
        "amenity": "restaurant",
        "cuisine": "barbecue",
        "delivery": "no",
        "name": "Mudu",
        "smoking": "outside"
      },
      "geometry": {
        "type": "Point",
        "coordinates": [
          21.1295746,
          55.7137007
        ]
      },
      "id": "node/5588894184"
    },
    {
      "type": "Feature",
      "properties": {
        "@id": "node/5588894297",
        "addr:city": "Klaipėda",
        "addr:contact": "yes",
        "addr:housenumber": "10",
        "addr:street": "S. Daukanto g.",
        "amenity": "cafe",
        "internet_access": "wlan",
        "name": "Coffee King",
        "opening_hours": "Mo-Su 07:30-22:00",
        "smoking": "outside"
      },
      "geometry": {
        "type": "Point",
        "coordinates": [
          21.1283288,
          55.7152239
        ]
      },
      "id": "node/5588894297"
    },
    {
      "type": "Feature",
      "properties": {
        "@id": "node/5588897852",
        "addr:city": "Klaipėda",
        "addr:housenumber": "14",
        "addr:postcode": "92129",
        "addr:street": "S. Šimkaus g.",
        "amenity": "pub",
        "name": "Vyšnia 3",
        "opening_hours": "24/7",
        "smoking": "outside"
      },
      "geometry": {
        "type": "Point",
        "coordinates": [
          21.1279521,
          55.7142602
        ]
      },
      "id": "node/5588897852"
    },
    {
      "type": "Feature",
      "properties": {
        "@id": "node/5590594434",
        "addr:city": "Klaipėda",
        "addr:contact": "yes",
        "addr:housenumber": "10",
        "addr:street": "H. Manto g.",
        "amenity": "pub",
        "facebook": "https://www.facebook.com/lapebaras/",
        "name": "Lapė",
        "real_ale": "ipa;stout"
      },
      "geometry": {
        "type": "Point",
        "coordinates": [
          21.1302984,
          55.7140535
        ]
      },
      "id": "node/5590594434"
    },
    {
      "type": "Feature",
      "properties": {
        "@id": "node/5660937821",
        "addr:postcode": "95144",
        "amenity": "fast_food",
        "cuisine": "kebab;pizza",
        "name": "Rucola",
        "opening_hours": "Mo-Su 09:00-23:00",
        "phone": "+370 690 32 777"
      },
      "geometry": {
        "type": "Point",
        "coordinates": [
          21.1916227,
          55.6640932
        ]
      },
      "id": "node/5660937821"
    },
    {
      "type": "Feature",
      "properties": {
        "@id": "node/5660957137",
        "amenity": "fast_food",
        "cuisine": "pizza",
        "name": "Express Pizza",
        "opening_hours": "Mo-Su 11:00-23:00",
        "phone": "+370 607 95 965",
        "website": "https://www.noriupicos.lt/"
      },
      "geometry": {
        "type": "Point",
        "coordinates": [
          21.1723809,
          55.6719194
        ]
      },
      "id": "node/5660957137"
    },
    {
      "type": "Feature",
      "properties": {
        "@id": "node/5742073321",
        "addr:city": "Klaipėda",
        "addr:housenumber": "43",
        "addr:street": "H. Manto g.",
        "amenity": "restaurant",
        "cuisine": "chinese;asian",
        "name": "Kinų bambukas",
        "website": "http://kinubambukas.lt"
      },
      "geometry": {
        "type": "Point",
        "coordinates": [
          21.1265855,
          55.7192619
        ]
      },
      "id": "node/5742073321"
    },
    {
      "type": "Feature",
      "properties": {
        "@id": "node/5763332620",
        "addr:city": "Klaipėda",
        "addr:housenumber": "4",
        "addr:street": "Žvejų g.",
        "amenity": "bar",
        "description": "Craft beer and burgers",
        "email": "dock.baras@gmail.com",
        "name": "Dock",
        "opening_hours": "Mo-Th 12:00-24:00; Fr-Sa 12:00-02:00; Su 12:00-24:00",
        "phone": "+370 613 02310"
      },
      "geometry": {
        "type": "Point",
        "coordinates": [
          21.1320328,
          55.7091972
        ]
      },
      "id": "node/5763332620"
    },
    {
      "type": "Feature",
      "properties": {
        "@id": "node/5763953153",
        "addr:city": "Klaipėda",
        "addr:housenumber": "61",
        "addr:street": "Taikos pr.",
        "amenity": "restaurant",
        "cuisine": "grill;burger;pasta",
        "description": "„Grill London“ – ant žarijų keptų patiekalų restoranų tinklas.  Visi kepsniai – kepami unikaliose keraminėse kepsninėse, naudojant ekologiškas anglis.",
        "name": "Grill London",
        "opening_hours": "Mo-Su 10:00-23:00",
        "website": "http://grilllondon.lt/"
      },
      "geometry": {
        "type": "Point",
        "coordinates": [
          21.1556899,
          55.6921718
        ]
      },
      "id": "node/5763953153"
    },
    {
      "type": "Feature",
      "properties": {
        "@id": "node/5763981782",
        "addr:city": "Klaipėda",
        "addr:housenumber": "61",
        "addr:street": "Taikos pr.",
        "amenity": "restaurant",
        "name": "CanCan pizza"
      },
      "geometry": {
        "type": "Point",
        "coordinates": [
          21.1565281,
          55.6916798
        ]
      },
      "id": "node/5763981782"
    },
    {
      "type": "Feature",
      "properties": {
        "@id": "node/5763981783",
        "addr:city": "Klaipėda",
        "addr:housenumber": "61",
        "addr:street": "Taikos pr.",
        "amenity": "restaurant",
        "name": "Soya"
      },
      "geometry": {
        "type": "Point",
        "coordinates": [
          21.1566716,
          55.6917941
        ]
      },
      "id": "node/5763981783"
    },
    {
      "type": "Feature",
      "properties": {
        "@id": "node/5763981784",
        "addr:city": "Klaipėda",
        "addr:housenumber": "61",
        "addr:street": "Taikos pr.",
        "amenity": "restaurant",
        "name": "Čili pizza"
      },
      "geometry": {
        "type": "Point",
        "coordinates": [
          21.15681,
          55.6918944
        ]
      },
      "id": "node/5763981784"
    },
    {
      "type": "Feature",
      "properties": {
        "@id": "node/5763981785",
        "addr:city": "Klaipėda",
        "addr:housenumber": "61",
        "addr:street": "Taikos pr.",
        "amenity": "restaurant",
        "name": "Manami"
      },
      "geometry": {
        "type": "Point",
        "coordinates": [
          21.1569881,
          55.6920087
        ]
      },
      "id": "node/5763981785"
    },
    {
      "type": "Feature",
      "properties": {
        "@id": "node/5763981786",
        "addr:city": "Klaipėda",
        "addr:housenumber": "61",
        "addr:street": "Taikos pr.",
        "amenity": "restaurant",
        "name": "Charlie pizza"
      },
      "geometry": {
        "type": "Point",
        "coordinates": [
          21.1572008,
          55.6921704
        ]
      },
      "id": "node/5763981786"
    },
    {
      "type": "Feature",
      "properties": {
        "@id": "node/5763981787",
        "addr:city": "Klaipėda",
        "addr:housenumber": "61",
        "addr:street": "Taikos pr.",
        "amenity": "restaurant",
        "name": "Delano",
        "website": "http://delano.lt"
      },
      "geometry": {
        "type": "Point",
        "coordinates": [
          21.1561374,
          55.6920812
        ]
      },
      "id": "node/5763981787"
    },
    {
      "type": "Feature",
      "properties": {
        "@id": "node/5763988560",
        "addr:city": "Klaipėda",
        "addr:housenumber": "61",
        "addr:street": "Taikos pr.",
        "amenity": "fast_food",
        "description": "Antrame aukšte (second floor).",
        "name": "Hesburger"
      },
      "geometry": {
        "type": "Point",
        "coordinates": [
          21.1562859,
          55.691448
        ]
      },
      "id": "node/5763988560"
    },
    {
      "type": "Feature",
      "properties": {
        "@id": "node/5764134043",
        "amenity": "restaurant",
        "name": "Sushi Express"
      },
      "geometry": {
        "type": "Point",
        "coordinates": [
          21.1252992,
          55.7289823
        ]
      },
      "id": "node/5764134043"
    },
    {
      "type": "Feature",
      "properties": {
        "@id": "node/5764367053",
        "addr:city": "Klaipėda",
        "addr:housenumber": "139",
        "addr:street": "Taikos pr.",
        "amenity": "fast_food",
        "name": "Hesburger"
      },
      "geometry": {
        "type": "Point",
        "coordinates": [
          21.1757462,
          55.6658748
        ]
      },
      "id": "node/5764367053"
    },
    {
      "type": "Feature",
      "properties": {
        "@id": "node/5764410456",
        "addr:city": "Klaipėda",
        "addr:housenumber": "66A",
        "addr:street": "Taikos pr.",
        "amenity": "pub",
        "name": "Kuršių aludė"
      },
      "geometry": {
        "type": "Point",
        "coordinates": [
          21.1598315,
          55.6845457
        ]
      },
      "id": "node/5764410456"
    },
    {
      "type": "Feature",
      "properties": {
        "@id": "node/5781782673",
        "addr:city": "Klaipėda",
        "addr:housenumber": "9",
        "addr:street": "Butkų Juzės g.",
        "amenity": "cafe",
        "cuisine": "regional",
        "name": "Cafe Klaipėda"
      },
      "geometry": {
        "type": "Point",
        "coordinates": [
          21.1376272,
          55.7198641
        ]
      },
      "id": "node/5781782673"
    },
    {
      "type": "Feature",
      "properties": {
        "@id": "node/5783709935",
        "addr:city": "Klaipėda",
        "addr:housenumber": "34",
        "addr:street": "Liepų g.",
        "amenity": "cafe",
        "name": "Liepžiedis"
      },
      "geometry": {
        "type": "Point",
        "coordinates": [
          21.1392481,
          55.7139077
        ]
      },
      "id": "node/5783709935"
    },
    {
      "type": "Feature",
      "properties": {
        "@id": "node/5783803602",
        "addr:city": "Klaipėda",
        "addr:housenumber": "9A",
        "addr:street": "H. Manto g.",
        "amenity": "restaurant",
        "cuisine": "chinese",
        "name": "Baltoji gėlelė"
      },
      "geometry": {
        "type": "Point",
        "coordinates": [
          21.1296688,
          55.7143315
        ]
      },
      "id": "node/5783803602"
    },
    {
      "type": "Feature",
      "properties": {
        "@id": "node/5783825432",
        "addr:city": "Klaipėda",
        "addr:housenumber": "40A",
        "addr:street": "H. Manto g.",
        "amenity": "bar",
        "name": "Centras"
      },
      "geometry": {
        "type": "Point",
        "coordinates": [
          21.1286445,
          55.7177083
        ]
      },
      "id": "node/5783825432"
    },
    {
      "type": "Feature",
      "properties": {
        "@id": "node/5783854353",
        "addr:city": "Klaipėda",
        "addr:housenumber": "36A",
        "addr:street": "H. Manto g.",
        "amenity": "restaurant",
        "name": "Ingredientai",
        "opening_hours": "Tu-Fr15:00-22:00; Sa 13:00-22:00"
      },
      "geometry": {
        "type": "Point",
        "coordinates": [
          21.1290616,
          55.7170878
        ]
      },
      "id": "node/5783854353"
    },
    {
      "type": "Feature",
      "properties": {
        "@id": "node/5789811114",
        "addr:city": "Klaipėda",
        "addr:housenumber": "39",
        "addr:street": "Taikos pr.",
        "amenity": "bar",
        "name": "Akademikai",
        "opening_hours": "Mo-Su 21:00-06:00"
      },
      "geometry": {
        "type": "Point",
        "coordinates": [
          21.1492265,
          55.6982346
        ]
      },
      "id": "node/5789811114"
    },
    {
      "type": "Feature",
      "properties": {
        "@id": "node/5804224937",
        "addr:city": "Klaipėda",
        "addr:housenumber": "1",
        "addr:street": "H. Manto g.",
        "amenity": "bar",
        "name": "Amber Lounge"
      },
      "geometry": {
        "type": "Point",
        "coordinates": [
          21.1312394,
          55.7121134
        ]
      },
      "id": "node/5804224937"
    },
    {
      "type": "Feature",
      "properties": {
        "@id": "node/5806371754",
        "addr:postcode": "92131",
        "amenity": "cafe",
        "cuisine": "sandwich;ice_cream;tea;cake;coffee_shop",
        "name": "Namai Be Gliuteno",
        "name:en": "Gluten Free House"
      },
      "geometry": {
        "type": "Point",
        "coordinates": [
          21.1306198,
          55.7140196
        ]
      },
      "id": "node/5806371754"
    },
    {
      "type": "Feature",
      "properties": {
        "@id": "node/5817428991",
        "addr:city": "Klaipėda",
        "addr:housenumber": "7",
        "addr:street": "Tiltų g.",
        "amenity": "cafe",
        "description": "Šviežiai iškepti burbuliniai vafliai - pagardinti įvairiais ingredientais, ledais, vaisiais bei padažais pagal Jūsų skonį.",
        "name": "Waff House",
        "opening_hours": "Mo-Th 12:00-21:00; Fr-Sa 12:00-22:00; Su 12:00-21:00"
      },
      "geometry": {
        "type": "Point",
        "coordinates": [
          21.1353882,
          55.7089558
        ]
      },
      "id": "node/5817428991"
    },
    {
      "type": "Feature",
      "properties": {
        "@id": "node/5817497185",
        "addr:city": "Klaipėda",
        "addr:housenumber": "23",
        "addr:street": "Jūros g.",
        "amenity": "restaurant",
        "description": "The restaurant's \"Tonas\" kitchen is managed by a qualified and experienced chef who created a non-extensive yet carefully selected menu by choosing only finest dishes of European cuisine.",
        "name": "Tonas",
        "phone": "+370 46 385 577"
      },
      "geometry": {
        "type": "Point",
        "coordinates": [
          21.1252846,
          55.7124696
        ]
      },
      "id": "node/5817497185"
    },
    {
      "type": "Feature",
      "properties": {
        "@id": "node/5821814667",
        "addr:city": "Klaipėda",
        "addr:housenumber": "9",
        "addr:street": "Tilžės g.",
        "amenity": "cafe",
        "name": "Aismarės",
        "opening_hours": "Mo-Su 10:00-18:00",
        "website": "http://aismares.lt/kavine"
      },
      "geometry": {
        "type": "Point",
        "coordinates": [
          21.1443291,
          55.7065819
        ]
      },
      "id": "node/5821814667"
    },
    {
      "type": "Feature",
      "properties": {
        "@id": "node/5863355420",
        "addr:city": "Klaipėda",
        "addr:housenumber": "1",
        "addr:street": "Žvejų g.",
        "amenity": "fast_food",
        "cuisine": "asian;soup",
        "name": "Vyšnia BAO"
      },
      "geometry": {
        "type": "Point",
        "coordinates": [
          21.1335282,
          55.7097275
        ]
      },
      "id": "node/5863355420"
    },
    {
      "type": "Feature",
      "properties": {
        "@id": "node/5977568474",
        "amenity": "cafe",
        "operator": "Veramiga",
        "phone": "+370 677 68222"
      },
      "geometry": {
        "type": "Point",
        "coordinates": [
          21.1782852,
          55.6840507
        ]
      },
      "id": "node/5977568474"
    },
    {
      "type": "Feature",
      "properties": {
        "@id": "node/6435499685",
        "addr:city": "Klaipėda",
        "addr:housenumber": "61",
        "addr:street": "Taikos pr.",
        "amenity": "restaurant",
        "cuisine": "sushi",
        "delivery": "yes",
        "email": "klaipeda@sushiexpress.lt",
        "name": "Sushi Express",
        "opening_hours": "Mo-Sa 10:00-22:00",
        "outdoor_seating": "no",
        "phone": "+370 653 99997",
        "takeaway": "yes",
        "website": "https://www.sushiexpress.lt/"
      },
      "geometry": {
        "type": "Point",
        "coordinates": [
          21.1560501,
          55.6919363
        ]
      },
      "id": "node/6435499685"
    },
    {
      "type": "Feature",
      "properties": {
        "@id": "node/6572444411",
        "addr:city": "Klaipėda",
        "addr:housenumber": "51",
        "addr:street": "Nemuno g.",
        "amenity": "restaurant",
        "name": "Ibis Styles"
      },
      "geometry": {
        "type": "Point",
        "coordinates": [
          21.1414156,
          55.6890751
        ]
      },
      "id": "node/6572444411"
    },
    {
      "type": "Feature",
      "properties": {
        "@id": "node/6576742032",
        "addr:city": "Klaipėda",
        "addr:housenumber": "10",
        "addr:postcode": "91241",
        "addr:street": "Žvejų g.",
        "amenity": "bar",
        "cuisine": "tea",
        "name": "Fumosumo",
        "opening_hours": "Mo-We 13:00-23:00; Th 13:00-00:00; Fr-Sa 13:00-02:00; Su 13:00-23:00",
        "phone": "+370 650 13 059",
        "website": "http://fumosumo.com"
      },
      "geometry": {
        "type": "Point",
        "coordinates": [
          21.1309158,
          55.7091754
        ]
      },
      "id": "node/6576742032"
    },
    {
      "type": "Feature",
      "properties": {
        "@id": "node/6590431192",
        "addr:city": "Klaipėda",
        "addr:housenumber": "83",
        "addr:postcode": "92195",
        "addr:street": "Liepų g.",
        "amenity": "cafe",
        "name": "Kombinatas",
        "website": "https://www.facebook.com/kombinatas.bar/"
      },
      "geometry": {
        "type": "Point",
        "coordinates": [
          21.1584154,
          55.7250354
        ]
      },
      "id": "node/6590431192"
    },
    {
      "type": "Feature",
      "properties": {
        "@id": "node/6670213201",
        "amenity": "cafe",
        "cuisine": "regional",
        "description": "II aukštas.",
        "name": "Laukinė vyšnia"
      },
      "geometry": {
        "type": "Point",
        "coordinates": [
          21.1249127,
          55.7288589
        ]
      },
      "id": "node/6670213201"
    },
    {
      "type": "Feature",
      "properties": {
        "@id": "node/6677589956",
        "amenity": "cafe",
        "name": "Pas Betą",
        "toilets:access": "customers",
        "wheelchair": "no"
      },
      "geometry": {
        "type": "Point",
        "coordinates": [
          21.1318812,
          55.7144261
        ]
      },
      "id": "node/6677589956"
    },
    {
      "type": "Feature",
      "properties": {
        "@id": "node/6796433085",
        "amenity": "cafe",
        "name": "10 tiltų"
      },
      "geometry": {
        "type": "Point",
        "coordinates": [
          21.1348848,
          55.7090333
        ]
      },
      "id": "node/6796433085"
    }
  ]
}